{"type": "FeatureCollection", "features": [ {"type": "Feature", "properties": {"norad_id": 43622, "name": "BEIDOU-3 M13 (C32)", "group": "beidou", "lat": -2.3889112178175775, "lon": 67.05779460542894, "alt_km": 21519.854074491403, "timestamp": "2025-12-18T13:51:49.948995+00:00", "meta": {"OBJECT_NAME": "BEIDOU-3 M13 (C32)", "OBJECT_ID": "2018-072A", "EPOCH": "2025-12-18T01:04:45.751872", "MEAN_MOTION": 1.86231057, "ECCENTRICITY": 0.00059817, "INCLINATION": 56.4642, "RA_OF_ASC_NODE": 68.6443, "ARG_OF_PERICENTER": 299.083, "MEAN_ANOMALY": 60.8858, "EPHEMERIS_TYPE": 0, "CLASSIFICATION_TYPE": "U", "NORAD_CAT_ID": 43622, "ELEMENT_SET_NO": 999, "REV_AT_EPOCH": 4928, "BSTAR": 0, "MEAN_MOTION_DOT": -6.7e-07, "MEAN_MOTION_DDOT": 0}, "tle": {"line1": "1 43622U 18072A   25352.04497398 -.00000067  00000+0  00000+0 0  9998", "line2": "2 43622  56.4642  68.6443 0005981 299.0830  60.8858  1.86231057 49282"}}, "geometry": {"type": "Point", "coordinates": [67.05779460542894, -2.3889112178175775]}}, {"type": "Feature", "properties": {"norad_id": 43623, "name": "BEIDOU-3 M14 (C33)", "group": "beidou", "lat": 56.3998709268837, "lon": 153.88542648374093, "alt_km": 21525.430439098534, "timestamp": "2025-12-18T13:51:49.949007+00:00", "meta": {"OBJECT_NAME": "BEIDOU-3 M14 (C33)", "OBJECT_ID": "2018-072B", "EPOCH": "2025-12-17T08:57:48.957984", "MEAN_MOTION": 1.86231002, "ECCENTRICITY": 0.00033285, "INCLINATION": 56.4654, "RA_OF_ASC_NODE": 68.6605, "ARG_OF_PERICENTER": 332.8139, "MEAN_ANOMALY": 27.1942, "EPHEMERIS_TYPE": 0, "CLASSIFICATION_TYPE": "U", "NORAD_CAT_ID": 43623, "ELEMENT_SET_NO": 999, "REV_AT_EPOCH": 4926, "BSTAR": 0, "MEAN_MOTION_DOT": -7.3e-07, "MEAN_MOTION_DDOT": 0}, "tle": {"line1": "1 43623U 18072B   25351.37348331 -.00000073  00000+0  00000+0 0  9993", "line2": "2 43623  56.4654  68.6605 0003328 332.8139  27.1942  1.86231002 49265"}}, "geometry": {"type": "Point", "coordinates": [153.88542648374093, 56.3998709268837]}}, {"type": "Feature", "properties": {"norad_id": 43647, "name": "BEIDOU-3 M16 (C35)", "group": "beidou", "lat": -14.880553832485155, "lon": -64.72957470281025, "alt_km": 21513.98671209209, "timestamp": "2025-12-18T13:51:49.949018+00:00", "meta": {"OBJECT_NAME": "BEIDOU-3 M16 (C35)", "OBJECT_ID": "2018-078A", "EPOCH": "2025-12-18T01:38:11.471712", "MEAN_MOTION": 1.86232421, "ECCENTRICITY": 0.00073225, "INCLINATION": 54.2571, "RA_OF_ASC_NODE": 306.335, "ARG_OF_PERICENTER": 19.7633, "MEAN_ANOMALY": 340.2526, "EPHEMERIS_TYPE": 0, "CLASSIFICATION_TYPE": "U", "NORAD_CAT_ID": 43647, "ELEMENT_SET_NO": 999, "REV_AT_EPOCH": 4878, "BSTAR": 0, "MEAN_MOTION_DOT": -8.5e-07, "MEAN_MOTION_DDOT": 0}, "tle": {"line1": "1 43647U 18078A   25352.06818833 -.00000085  00000+0  00000+0 0  9994", "line2": "2 43647  54.2571 306.3350 0007322  19.7633 340.2526  1.86232421 48781"}}, "geometry": {"type": "Point", "coordinates": [-64.72957470281025, -14.880553832485155]}}, {"type": "Feature", "properties": {"norad_id": 43648, "name": "BEIDOU-3 M15 (C34)", "group": "beidou", "lat": -51.61165709087253, "lon": -168.4263204428339, "alt_km": 21539.880093682972, "timestamp": "2025-12-18T13:51:49.949029+00:00", "meta": {"OBJECT_NAME": "BEIDOU-3 M15 (C34)", "OBJECT_ID": "2018-078B", "EPOCH": "2025-12-17T15:51:04.131072", "MEAN_MOTION": 1.86232271, "ECCENTRICITY": 0.00039327, "INCLINATION": 54.253, "RA_OF_ASC_NODE": 306.3494, "ARG_OF_PERICENTER": 20.2564, "MEAN_ANOMALY": 339.7463, "EPHEMERIS_TYPE": 0, "CLASSIFICATION_TYPE": "U", "NORAD_CAT_ID": 43648, "ELEMENT_SET_NO": 999, "REV_AT_EPOCH": 4879, "BSTAR": 0, "MEAN_MOTION_DOT": -8.8e-07, "MEAN_MOTION_DDOT": 0}, "tle": {"line1": "1 43648U 18078B   25351.66046448 -.00000088  00000+0  00000+0 0  9998", "line2": "2 43648  54.2530 306.3494 0003932  20.2564 339.7463  1.86232271 48796"}}, "geometry": {"type": "Point", "coordinates": [-168.4263204428339, -51.61165709087253]}}, {"type": "Feature", "properties": {"norad_id": 43683, "name": "BEIDOU-3 G1 (C59)", "group": "beidou", "lat": -1.1777556121129322, "lon": 75.4327711880346, "alt_km": 35785.30679509212, "timestamp": "2025-12-18T13:51:49.949041+00:00", "meta": {"OBJECT_NAME": "BEIDOU-3 G1 (C59)", "OBJECT_ID": "2018-085A", "EPOCH": "2025-12-18T07:06:45.948960", "MEAN_MOTION": 1.00269273, "ECCENTRICITY": 0.0001633, "INCLINATION": 2.6212, "RA_OF_ASC_NODE": 102.8031, "ARG_OF_PERICENTER": 48.7365, "MEAN_ANOMALY": 182.3535, "EPHEMERIS_TYPE": 0, "CLASSIFICATION_TYPE": "U", "NORAD_CAT_ID": 43683, "ELEMENT_SET_NO": 999, "REV_AT_EPOCH": 2624, "BSTAR": 0, "MEAN_MOTION_DOT": -2.55e-06, "MEAN_MOTION_DDOT": 0}, "tle": {"line1": "1 43683U 18085A   25352.29636515 -.00000255  00000+0  00000+0 0  9991", "line2": "2 43683   2.6212 102.8031 0001633  48.7365 182.3535  1.00269273 26241"}}, "geometry": {"type": "Point", "coordinates": [75.4327711880346, -1.1777556121129322]}}, {"type": "Feature", "properties": {"norad_id": 43706, "name": "BEIDOU-3 M17 (C36)", "group": "beidou", "lat": 25.02028519739895, "lon": -11.285747812108477, "alt_km": 21541.23835208116, "timestamp": "2025-12-18T13:51:49.949053+00:00", "meta": {"OBJECT_NAME": "BEIDOU-3 M17 (C36)", "OBJECT_ID": "2018-093A", "EPOCH": "2025-12-15T07:56:44.520576", "MEAN_MOTION": 1.86228523, "ECCENTRICITY": 0.00061371, "INCLINATION": 54.1729, "RA_OF_ASC_NODE": 188.5337, "ARG_OF_PERICENTER": 307.6759, "MEAN_ANOMALY": 184.25, "EPHEMERIS_TYPE": 0, "CLASSIFICATION_TYPE": "U", "NORAD_CAT_ID": 43706, "ELEMENT_SET_NO": 999, "REV_AT_EPOCH": 4811, "BSTAR": 0, "MEAN_MOTION_DOT": 1.13e-06, "MEAN_MOTION_DDOT": 0}, "tle": {"line1": "1 43706U 18093A   25349.33107084  .00000113  00000+0  00000+0 0  9993", "line2": "2 43706  54.1729 188.5337 0006137 307.6759 184.2500  1.86228523 48110"}}, "geometry": {"type": "Point", "coordinates": [-11.285747812108477, 25.02028519739895]}}, {"type": "Feature", "properties": {"norad_id": 43707, "name": "BEIDOU-3 M18 (C37)", "group": "beidou", "lat": -45.33286522351434, "lon": 55.4107503323673, "alt_km": 21540.242242581746, "timestamp": "2025-12-18T13:51:49.949065+00:00", "meta": {"OBJECT_NAME": "BEIDOU-3 M18 (C37)", "OBJECT_ID": "2018-093B", "EPOCH": "2025-12-16T14:33:42.784416", "MEAN_MOTION": 1.8622677, "ECCENTRICITY": 0.00063186, "INCLINATION": 54.1735, "RA_OF_ASC_NODE": 188.4822, "ARG_OF_PERICENTER": 353.2257, "MEAN_ANOMALY": 6.8349, "EPHEMERIS_TYPE": 0, "CLASSIFICATION_TYPE": "U", "NORAD_CAT_ID": 43707, "ELEMENT_SET_NO": 999, "REV_AT_EPOCH": 4813, "BSTAR": 0, "MEAN_MOTION_DOT": 1.15e-06, "MEAN_MOTION_DDOT": 0}, "tle": {"line1": "1 43707U 18093B   25350.60674519  .00000115  00000+0  00000+0 0  9990", "line2": "2 43707  54.1735 188.4822 0006318 353.2257   6.8349  1.86226770 48131"}}, "geometry": {"type": "Point", "coordinates": [55.4107503323673, -45.33286522351434]}}, {"type": "Feature", "properties": {"norad_id": 44204, "name": "BEIDOU-3 IGSO-1 (C38)", "group": "beidou", "lat": 7.139577139613003, "lon": 43.96978249490092, "alt_km": 35889.24031779126, "timestamp": "2025-12-18T13:51:49.949077+00:00", "meta": {"OBJECT_NAME": "BEIDOU-3 IGSO-1 (C38)", "OBJECT_ID": "2019-023A", "EPOCH": "2025-11-19T14:15:02.708640", "MEAN_MOTION": 1.00252177, "ECCENTRICITY": 0.0026966, "INCLINATION": 58.4003, "RA_OF_ASC_NODE": 39.8168, "ARG_OF_PERICENTER": 221.2202, "MEAN_ANOMALY": 126.9723, "EPHEMERIS_TYPE": 0, "CLASSIFICATION_TYPE": "U", "NORAD_CAT_ID": 44204, "ELEMENT_SET_NO": 999, "REV_AT_EPOCH": 510, "BSTAR": 0, "MEAN_MOTION_DOT": -2.26e-06, "MEAN_MOTION_DDOT": 0}, "tle": {"line1": "1 44204U 19023A   25323.59378135 -.00000226  00000+0  00000+0 0  9994", "line2": "2 44204  58.4003  39.8168 0026966 221.2202 126.9723  1.00252177  5102"}}, "geometry": {"type": "Point", "coordinates": [43.96978249490092, 7.139577139613003]}}, {"type": "Feature", "properties": {"norad_id": 44231, "name": "BEIDOU-2 G8 (C01)", "group": "beidou", "lat": 0.17676302696993643, "lon": 79.8891869819882, "alt_km": 35797.66667205733, "timestamp": "2025-12-18T13:51:49.949093+00:00", "meta": {"OBJECT_NAME": "BEIDOU-2 G8 (C01)", "OBJECT_ID": "2019-027A", "EPOCH": "2025-12-18T10:33:26.151264", "MEAN_MOTION": 1.00266789, "ECCENTRICITY": 0.000883, "INCLINATION": 1.6755, "RA_OF_ASC_NODE": 74.762, "ARG_OF_PERICENTER": 259.3084, "MEAN_ANOMALY": 56.0016, "EPHEMERIS_TYPE": 0, "CLASSIFICATION_TYPE": "U", "NORAD_CAT_ID": 44231, "ELEMENT_SET_NO": 999, "REV_AT_EPOCH": 2426, "BSTAR": 0, "MEAN_MOTION_DOT": -2.25e-06, "MEAN_MOTION_DDOT": 0}, "tle": {"line1": "1 44231U 19027A   25352.43988601 -.00000225  00000+0  00000+0 0  9997", "line2": "2 44231   1.6755  74.7620 0008830 259.3084  56.0016  1.00266789 24267"}}, "geometry": {"type": "Point", "coordinates": [79.8891869819882, 0.17676302696993643]}}, {"type": "Feature", "properties": {"norad_id": 44337, "name": "BEIDOU-3 IGSO-2 (C39)", "group": "beidou", "lat": -52.37103061016003, "lon": 44.951585905323824, "alt_km": 35696.468531484395, "timestamp": "2025-12-18T13:51:49.949105+00:00", "meta": {"OBJECT_NAME": "BEIDOU-3 IGSO-2 (C39)", "OBJECT_ID": "2019-035A", "EPOCH": "2025-12-17T20:45:00.400608", "MEAN_MOTION": 1.00269779, "ECCENTRICITY": 0.00374701, "INCLINATION": 55.227, "RA_OF_ASC_NODE": 160.4563, "ARG_OF_PERICENTER": 202.3425, "MEAN_ANOMALY": 154.6367, "EPHEMERIS_TYPE": 0, "CLASSIFICATION_TYPE": "U", "NORAD_CAT_ID": 44337, "ELEMENT_SET_NO": 999, "REV_AT_EPOCH": 2384, "BSTAR": 0, "MEAN_MOTION_DOT": -4.5e-07, "MEAN_MOTION_DDOT": 0}, "tle": {"line1": "1 44337U 19035A   25351.86458797 -.00000045  00000+0  00000+0 0  9997", "line2": "2 44337  55.2270 160.4563 0037470 202.3425 154.6367  1.00269779 23848"}}, "geometry": {"type": "Point", "coordinates": [44.951585905323824, -52.37103061016003]}}]}